KUIPER-00044            
1 64505U 25134F   25293.01793385  .00007211  00000+0  97274-3 0  9994
2 64505  51.8980 148.6424 0012977 167.2308 192.8986 14.79943281 19051
KUIPER-00046            
1 64506U 25134G   25292.88372612  .00007245  00000+0  98575-3 0  9997
2 64506  51.8978 145.6741 0012283 173.0022 187.1114 14.79578861 19087
KUIPER-00047            
1 64507U 25134H   25293.03961829  .00029623  00000+0  13273-2 0  9995
2 64507  51.8634 121.2975 0010668 189.8234 170.2539 15.20956469 19435
KUIPER-00048            
1 64508U 25134J   25293.33336806 -.00099833  00000+0 -56473-2 0  9991
2 64508  51.8796 118.8229 0003360 233.0294 244.0009 15.12990442  5299
KUIPER-00049            
1 64509U 25134K   25293.03685356 -.00010001  00000+0 -12842-2 0  9998
2 64509  51.8984 131.0170 0004197 156.2075 203.9082 14.79941801 19302
KUIPER-00050            
1 64510U 25134L   25293.07450656  .00009953  00000+0  90435-3 0  9994
2 64510  51.8885 130.4974 0005494 198.5236 161.5534 14.95773317 19313
KUIPER-00051            
1 64511U 25134M   25293.33336806  .00016648  00000+0  22066-2 0  9997
2 64511  51.8995 127.2660 0002489 178.5594 306.3515 14.79948494  5593
KUIPER-00052            
1 64512U 25134N   25293.17820091  .00300433  00000+0  32634-2 0  9994
2 64512  51.8686 105.3877 0006818 208.1541 151.9088 15.61936073 19664
